      2.10          N: GNSS NAV DATA                        RINEX VERSION / TYPE
fic2rin                                 04/05/2018 00:17:50 PGM / RUN BY / DATE
                                                            END OF HEADER
 9 18  4  5  0  0  0.0 5.099140107632e-04 1.591615728103e-12 0.000000000000e+00
    7.600000000000e+01 3.000000000000e+00 4.481972406427e-09-2.954523885516e+00
    2.216547727585e-07 1.061418559402e-03 1.013837754726e-05 5.153653926849e+03
    3.456000000000e+05-5.960464477539e-08 3.298332859431e-01-8.195638656616e-08
    9.532723490825e-01 1.816250000000e+02 1.812645542820e+00-7.917472651659e-09
   -3.475144753728e-10 1.000000000000e+00 1.995000000000e+03 0.000000000000e+00
    2.400000000000e+00 0.000000000000e+00 1.396983861923e-09 7.600000000000e+01
    3.384060000000e+05 4.000000000000e+00
19 18  4  5  0  0  0.0-4.459968768060e-04 2.728484105319e-12 0.000000000000e+00
    9.400000000000e+01-5.946875000000e+01 4.069455223430e-09-2.473626616820e-01
   -3.032386302948e-06 9.792473400012e-03 9.128823876381e-06 5.153711523056e+03
    3.456000000000e+05-8.195638656616e-08-2.702747395180e+00 7.636845111847e-08
    9.800950208231e-01 2.154375000000e+02 1.147892413549e+00-7.969260523117e-09
   -5.250218692682e-11 1.000000000000e+00 1.995000000000e+03 0.000000000000e+00
    3.400000000000e+00 0.000000000000e+00-1.536682248116e-08 9.400000000000e+01
    3.384060000000e+05 4.000000000000e+00
17 18  4  5  0  0  0.0-1.097805798054e-04 3.296918293927e-12 0.000000000000e+00
    7.200000000000e+01-7.459375000000e+01 3.947307278335e-09 3.002332090771e+00
   -3.758817911148e-06 1.227694074623e-02 8.707866072655e-06 5.153791250229e+03
    3.456000000000e+05 1.788139343262e-07-2.749824574420e+00-1.750886440277e-07
    9.826334104429e-01 2.191562500000e+02-1.782406227368e+00-7.582101539249e-09
   -1.057186893220e-10 1.000000000000e+00 1.995000000000e+03 0.000000000000e+00
    2.400000000000e+00 0.000000000000e+00-1.117587089539e-08 7.200000000000e+01
    3.384060000000e+05 4.000000000000e+00
21 18  4  5  0  0  0.0-4.113307222724e-04 4.547473508865e-12 0.000000000000e+00
    8.200000000000e+01 1.465625000000e+01 5.091640658699e-09-8.195488638998e-01
    8.437782526016e-07 2.449518360663e-02 9.441748261452e-06 5.153734525681e+03
    3.456000000000e+05-3.799796104431e-07-1.799995873053e+00 1.825392246246e-07
    9.429655557861e-01 1.926875000000e+02-1.572770201198e+00-8.712148610245e-09
    4.193031799462e-10 1.000000000000e+00 1.995000000000e+03 0.000000000000e+00
    2.400000000000e+00 0.000000000000e+00-1.024454832077e-08 8.200000000000e+01
    3.384060000000e+05 4.000000000000e+00
12 18  4  5  0  0  0.0 3.414414823055e-04-2.160049916711e-12 0.000000000000e+00
    5.100000000000e+01-2.400000000000e+01 4.337680681811e-09-3.178860172743e-01
   -1.141801476479e-06 7.156835170463e-03 3.632158041000e-06 5.153612970352e+03
    3.456000000000e+05 2.793967723846e-08 2.499492638153e+00 7.078051567078e-08
    9.870048203239e-01 3.285937500000e+02 9.494577828763e-01-8.212127782371e-09
   -4.678766317969e-11 1.000000000000e+00 1.995000000000e+03 0.000000000000e+00
    2.400000000000e+00 0.000000000000e+00-1.257285475731e-08 5.100000000000e+01
    3.384060000000e+05 4.000000000000e+00
18 18  4  5  0  0  0.0-7.241498678923e-06 4.888534022029e-12 0.000000000000e+00
    1.080000000000e+02-3.062500000000e+00 4.930205362843e-09 6.826575276319e-01
   -2.235174179077e-08 1.432631514035e-02 9.251758456230e-06 5.153672660828e+03
    3.456000000000e+05-1.657754182816e-07-1.793191804494e+00 7.636845111847e-08
    9.487321330843e-01 1.983125000000e+02 1.297355020341e+00-8.437494312648e-09
    2.557249376844e-10 1.000000000000e+00 1.995000000000e+03 0.000000000000e+00
    2.400000000000e+00 0.000000000000e+00-6.519258022308e-09 1.080000000000e+02
    3.384060000000e+05 4.000000000000e+00
10 18  4  5  0  0  0.0 1.763910986483e-04 3.069544618484e-12 0.000000000000e+00
    7.600000000000e+01-1.603125000000e+01 4.741626079187e-09-1.133821346244e+00
   -9.257346391678e-07 3.426177077927e-03 6.001442670822e-06 5.153657850266e+03
    3.456000000000e+05 1.024454832077e-07-7.074842115000e-01-1.080334186554e-07
    9.609127766856e-01 2.659375000000e+02-2.770436725890e+00-8.112837932264e-09
   -1.950081228711e-10 1.000000000000e+00 1.995000000000e+03 0.000000000000e+00
    2.400000000000e+00 0.000000000000e+00 1.862645149231e-09 7.600000000000e+01
    3.384060000000e+05 4.000000000000e+00
26 18  4  5  0  0  0.0-1.937448978424e-04 1.307398633799e-11 0.000000000000e+00
    8.500000000000e+01-9.843750000000e+00 4.969492713604e-09-1.308518878824e+00
   -7.059425115585e-07 2.788885612972e-03 2.494081854820e-06 5.153633626938e+03
    3.456000000000e+05 0.000000000000e+00 2.419371570046e+00-5.215406417847e-08
    9.561962819847e-01 3.264062500000e+02 9.296129465677e-02-8.544641632907e-09
    3.321566928024e-11 1.000000000000e+00 1.995000000000e+03 0.000000000000e+00
    2.400000000000e+00 0.000000000000e+00 7.450580596924e-09 8.500000000000e+01
    3.384060000000e+05 4.000000000000e+00
31 18  4  5  0  0  0.0 1.307069323957e-04-2.614797267597e-12 0.000000000000e+00
    7.600000000000e+01 9.725000000000e+01 4.430898850437e-09 7.972766163998e-02
    5.191192030907e-06 8.787193568423e-03 7.137656211853e-06 5.153639438629e+03
    3.456000000000e+05 1.192092895508e-07 1.419978573636e+00-6.891787052155e-08
    9.635491408550e-01 2.401250000000e+02-1.362709024701e-01-8.245700609385e-09
    3.021554431299e-10 1.000000000000e+00 1.995000000000e+03 0.000000000000e+00
    2.400000000000e+00 0.000000000000e+00-1.350417733192e-08 7.600000000000e+01
    3.384060000000e+05 4.000000000000e+00
30 18  4  5  0  0  0.0 8.802860975266e-05-3.865352482535e-12 0.000000000000e+00
    7.800000000000e+01 8.034375000000e+01 4.859488131472e-09 4.336651108411e-01
    4.244968295097e-06 3.188377246261e-03 6.834045052528e-06 5.153756593704e+03
    3.456000000000e+05 6.519258022308e-08 1.442053932843e+00 2.235174179077e-08
    9.444996477557e-01 2.386562500000e+02-3.126948003901e+00-8.332132781060e-09
    2.550106222160e-10 1.000000000000e+00 1.995000000000e+03 0.000000000000e+00
    2.400000000000e+00 0.000000000000e+00 3.725290298462e-09 7.800000000000e+01
    3.384060000000e+05 4.000000000000e+00
29 18  4  5  0  0  0.0 4.714056849480e-04-6.025402399246e-12 0.000000000000e+00
    4.500000000000e+01-7.428125000000e+01 4.037311027353e-09-1.910306539341e+00
   -3.797933459282e-06 6.498534930870e-04 9.257346391678e-06 5.153718254089e+03
    3.456000000000e+05 1.862645149231e-08-2.739302901864e+00 6.705522537231e-08
    9.838855264157e-01 2.149687500000e+02 9.106416800869e-01-7.784967132272e-09
   -3.964450849577e-11 1.000000000000e+00 1.995000000000e+03 0.000000000000e+00
    2.400000000000e+00 0.000000000000e+00-1.024454832077e-08 4.500000000000e+01
    3.384060000000e+05 4.000000000000e+00
27 18  4  5  0  0  0.0 3.701969981194e-04 1.136868377216e-13 0.000000000000e+00
    5.000000000000e+01-8.731250000000e+01 4.100527946305e-09-3.100609587303e+00
   -4.507601261139e-06 5.782571388409e-03 9.190291166306e-06 5.153685188293e+03
    3.456000000000e+05-5.774199962616e-08-2.803551730131e+00-3.725290298462e-08
    9.774011844540e-01 2.113750000000e+02 3.827184606172e-01-7.767466403296e-09
   -1.182192100189e-10 1.000000000000e+00 1.995000000000e+03 0.000000000000e+00
    2.400000000000e+00 0.000000000000e+00 1.862645149231e-09 5.000000000000e+01
    3.384060000000e+05 4.000000000000e+00
20 18  4  5  0  0  0.0 5.049756728113e-04 1.023181539495e-12 0.000000000000e+00
    7.100000000000e+01-1.287500000000e+01 5.608805057815e-09 1.610910168120e+00
   -8.400529623032e-07 4.289224278182e-03 5.006790161133e-06 5.154819618225e+03
    3.456000000000e+05 1.080334186554e-07-8.117551634437e-01-5.215406417847e-08
    9.280319739253e-01 2.640625000000e+02 1.913922309609e+00-8.585000456871e-09
   -1.289339420448e-10 1.000000000000e+00 1.995000000000e+03 0.000000000000e+00
    2.400000000000e+00 0.000000000000e+00-8.381903171539e-09 7.100000000000e+01
    3.384060000000e+05 4.000000000000e+00
28 18  4  5  0  0  0.0 7.033566944301e-04 3.524291969370e-12 0.000000000000e+00
    6.300000000000e+01-2.003125000000e+01 4.084813006001e-09-2.259736692589e+00
   -7.674098014832e-07 1.955477904994e-02 3.140419721603e-06 5.153677148819e+03
    3.456000000000e+05 2.253800630569e-07 2.522672307405e+00 1.993030309677e-07
    9.863159994946e-01 3.260000000000e+02-1.522935781257e+00-7.753537251663e-09
    5.000208278745e-11 1.000000000000e+00 1.995000000000e+03 0.000000000000e+00
    2.400000000000e+00 0.000000000000e+00-1.117587089539e-08 6.300000000000e+01
    3.384060000000e+05 4.000000000000e+00
10 18  4  4 23 59 44.0 1.763924956322e-04 3.069544618484e-12 0.000000000000e+00
    2.000000000000e+00-1.603125000000e+01 4.741626079187e-09-1.136156100593e+00
   -9.257346391678e-07 3.426173119806e-03 6.001442670822e-06 5.153657848358e+03
    3.455840000000e+05 1.024454832077e-07-7.074840608195e-01-1.080334186554e-07
    9.609127737598e-01 2.659375000000e+02-2.770435723791e+00-8.112837932264e-09
   -1.950081228711e-10 1.000000000000e+00 1.995000000000e+03 0.000000000000e+00
    2.400000000000e+00 0.000000000000e+00 1.862645149231e-09 2.000000000000e+00
    3.402960000000e+05 4.000000000000e+00
19 18  4  4 23 59 44.0-4.459973424673e-04 2.728484105319e-12 0.000000000000e+00
    1.000000000000e+00-5.946875000000e+01 4.069455223430e-09-2.496962603258e-01
   -3.032386302948e-06 9.792470722459e-03 9.128823876381e-06 5.153711526871e+03
    3.455840000000e+05-8.195638656616e-08-2.702747264981e+00 7.636845111847e-08
    9.800950193601e-01 2.154375000000e+02 1.147892328700e+00-7.969260523117e-09
   -5.285934466102e-11 1.000000000000e+00 1.995000000000e+03 0.000000000000e+00
    2.400000000000e+00 0.000000000000e+00-1.536682248116e-08 1.000000000000e+00
    3.413760000000e+05 4.000000000000e+00
